{ "43618": {"name": "SSTL S1-4", "norad_id": "43618", "line1": "1 43618U 18071A   26190.82693328 -.00000169  00000-0 -10227-4 0  9992", "line2": "2 43618  97.5002  61.4960 0002046  95.2709 264.8746 14.96197708426323", "country": "UK", "operator": "SSTL", "sensor": "Panchromatic", "resolution_m": 0.75, "notes": "Added 2026-07 from brochure reconciliation; launch 2018-09-16", "fetched_at": 1783676011.8239799, "stale": false, "source": "spacetrack"}, "43619": {"name": "NOVASAR 1", "norad_id": "43619", "line1": "1 43619U 18071B   26190.85880166  .00000797  00000-0  75468-4 0  9997", "line2": "2 43619  97.5040  62.2459 0001917  76.7711 283.3725 14.96263565426329", "country": "", "operator": "", "sensor": "Optical", "resolution_m": 1.0, "notes": "Space-Track (military catalog)", "fetched_at": 1783676011.8239799, "stale": false, "source": "spacetrack"}, "52184": {"name": "NUSAT-26", "norad_id": "52184", "line1": "1 52184U 22033AD  26190.81551701  .00014119  00000-0  32073-3 0  9990", "line2": "2 52184  97.2338 269.7314 0006681 153.4454 206.7137 15.43107042108195", "country": "Argentina", "operator": "Satellogic", "sensor": "Optical", "resolution_m": 0.7, "notes": "Added 2026-07 from brochure reconciliation; launch 2022-04-01", "fetched_at": 1783676011.8239799, "stale": false, "source": "spacetrack"}, "55047": {"name": "NUSAT-33", "norad_id": "55047", "line1": "1 55047U 23001AQ  26190.86867638  .00006488  00000-0  23861-3 0  9996", "line2": "2 55047  97.3064 251.3406 0005269 338.4071  21.6945 15.28205299195770", "country": "Argentina", "operator": "Satellogic", "sensor": "Optical", "resolution_m": 0.7, "notes": "Added 2026-07 from brochure reconciliation; launch 2023-01-03", "fetched_at": 1783676011.8239799, "stale": false, "source": "spacetrack"}, "55048": {"name": "NUSAT-35", "norad_id": "55048", "line1": "1 55048U 23001AR  26190.84397987  .00010408  00000-0  30106-3 0  9997", "line2": "2 55048  97.1845 243.0235 0011105  29.0143 331.1716 15.35732296195880", "country": "Argentina", "operator": "Satellogic", "sensor": "Optical", "resolution_m": 0.7, "notes": "Added 2026-07 from brochure reconciliation; launch 2023-01-03", "fetched_at": 1783676011.8239799, "stale": false, "source": "spacetrack"}, "56201": {"name": "NUSAT-39", "norad_id": "56201", "line1": "1 56201U 23054Z   26190.81054505  .00020422  00000-0  39447-3 0  9994", "line2": "2 56201  97.3098 100.7864 0002702 351.5355   8.5850 15.47820894181954", "country": "Argentina", "operator": "Satellogic", "sensor": "Optical", "resolution_m": 0.7, "notes": "Added 2026-07 from brochure reconciliation; launch 2023-04-15", "fetched_at": 1783676011.8239799, "stale": false, "source": "spacetrack"}, "56202": {"name": "NUSAT-38", "norad_id": "56202", "line1": "1 56202U 23054AA  26190.81633510  .00025450  00000-0  43900-3 0  9999", "line2": "2 56202  97.3036 101.5065 0009694 349.6566  10.4485 15.50963948182014", "country": "Argentina", "operator": "Satellogic", "sensor": "Optical", "resolution_m": 0.7, "notes": "Added 2026-07 from brochure reconciliation; launch 2023-04-15", "fetched_at": 1783676011.8239799, "stale": false, "source": "spacetrack"}, "56203": {"name": "NUSAT-37", "norad_id": "56203", "line1": "1 56203U 23054AB  26190.83906176  .00039368  00000-0  50063-3 0  9994", "line2": "2 56203  97.2607  98.3730 0007136 158.9916 201.1635 15.59251142182177", "country": "Argentina", "operator": "Satellogic", "sensor": "Optical", "resolution_m": 0.7, "notes": "Added 2026-07 from brochure reconciliation; launch 2023-04-15", "fetched_at": 1783676011.8239799, "stale": false, "source": "spacetrack"}, "56310": {"name": "TELEOS 2", "norad_id": "56310", "line1": "1 56310U 23057C   26189.81775134  .00003915  00000-0  27705-3 0  9996", "line2": "2 56310   9.9887  46.6766 0000854 259.9130 100.0987 14.96394126176047", "country": "Singapore", "operator": "ST Engineering", "sensor": "SAR X-band", "resolution_m": 1.0, "notes": "Added 2026-07 from brochure reconciliation; launch 2023-04-22", "fetched_at": 1783676011.8239799, "stale": false, "source": "spacetrack"}, "56756": {"name": "KONDOR FKA 1", "norad_id": "56756", "line1": "1 56756U 23074A   26190.87029326  .00002814  00000-0  13507-3 0  9994", "line2": "2 56756  97.4412  25.1087 0001730  88.4505 271.6928 15.19687331173136", "country": "Russia", "operator": "NPO Mash", "sensor": "SAR S-band", "resolution_m": 1.0, "notes": "Added 2026-07 from brochure reconciliation; launch 2023-05-26", "fetched_at": 1783676011.8239799, "stale": false, "source": "spacetrack"}, "56943": {"name": "NUSAT-40", "norad_id": "56943", "line1": "1 56943U 23084M   26190.84670181  .00112196  00000-0  56600-3 0  9997", "line2": "2 56943  97.4862 339.2384 0004380 198.0965 162.0148 15.81300042172387", "country": "Argentina", "operator": "Satellogic", "sensor": "Optical", "resolution_m": 0.7, "notes": "Added 2026-07 from brochure reconciliation; launch 2023-06-12", "fetched_at": 1783676011.8239799, "stale": false, "source": "spacetrack"}, "56944": {"name": "NUSAT-41", "norad_id": "56944", "line1": "1 56944U 23084N   26190.81991568  .00007879  00000-0  27319-3 0  9996", "line2": "2 56944  97.5536 327.8989 0006065 232.3800 127.6890 15.30080709171247", "country": "Argentina", "operator": "Satellogic", "sensor": "Optical", "resolution_m": 0.7, "notes": "Added 2026-07 from brochure reconciliation; launch 2023-06-12", "fetched_at": 1783676011.8239799, "stale": false, "source": "spacetrack"}, "56953": {"name": "RUNNER-1", "norad_id": "56953", "line1": "1 56953U 23084X   26190.64457656  .00007410  00000-0  19946-3 0  9990", "line2": "2 56953  97.6259 333.6061 0007072 225.6684 134.3982 15.38152003171051", "country": "Israel", "operator": "ImageSat Intl", "sensor": "Panchromatic", "resolution_m": 0.7, "notes": "Added 2026-07 from brochure reconciliation; launch 2023-06-12", "fetched_at": 1783676011.8239799, "stale": false, "source": "spacetrack"}, "56966": {"name": "NUSAT-42", "norad_id": "56966", "line1": "1 56966U 23084AL  26190.82158397  .00018175  00000-0  36937-3 0  9993", "line2": "2 56966  97.5737 335.8982 0006440 163.2758 196.8705 15.46354764171578", "country": "Argentina", "operator": "Satellogic", "sensor": "Optical", "resolution_m": 0.7, "notes": "Added 2026-07 from brochure reconciliation; launch 2023-06-12", "fetched_at": 1783676011.8239799, "stale": false, "source": "spacetrack"}, "57481": {"name": "DS-SAR", "norad_id": "57481", "line1": "1 57481U 23109A   25221.87688657  .00126762  00000-0  65183-2 0  9996", "line2": "2 57481   4.9911  68.1156 0023376 265.9833 303.4444 15.14209474112772", "country": "Singapore", "operator": "DSTA / ST Eng", "sensor": "SAR X-band", "resolution_m": 1.0, "notes": "Added 2026-07 from brochure reconciliation; launch 2023-07-30", "fetched_at": 1783676011.8239799, "stale": false, "source": "spacetrack"}, "58578": {"name": "QPS-SAR-5 TSUKUYOMI-I", "norad_id": "58578", "line1": "1 58578U 23196A   26190.60151716  .00007649  00000-0  32454-3 0  9996", "line2": "2 58578  42.0092 248.2004 0025195  71.0480 289.3082 15.23112350141667", "country": "Japan", "operator": "iQPS", "sensor": "SAR X-band", "resolution_m": 0.46, "notes": "Added 2026-07 from brochure reconciliation; launch 2023-12-15", "fetched_at": 1783676011.8239799, "stale": false, "source": "spacetrack"}, "59122": {"name": "NUSAT-44 MARIA MITCHELL", "norad_id": "59122", "line1": "1 59122U 24043AA  26190.84006756  .00007370  00000-0  25810-3 0  9992", "line2": "2 59122  97.5469 331.4502 0006170 147.2057 212.9567 15.29780018130736", "country": "Argentina", "operator": "Satellogic", "sensor": "Optical", "resolution_m": 0.7, "notes": "Added 2026-07 from brochure reconciliation; launch 2024-03-04", "fetched_at": 1783676011.8239799, "stale": false, "source": "spacetrack"}, "59447": {"name": "QPS-SAR-7 TSUKUYOMI-II", "norad_id": "59447", "line1": "1 59447U 24066F   26190.80876936  .00004921  00000-0  32026-3 0  9994", "line2": "2 59447  45.6030 126.5899 0000763  83.4403 276.6568 15.09201952123647", "country": "Japan", "operator": "iQPS", "sensor": "SAR X-band", "resolution_m": 0.46, "notes": "Added 2026-07 from brochure reconciliation; launch 2024-04-07", "fetched_at": 1783676011.8239799, "stale": false, "source": "spacetrack"}, "59625": {"name": "LEGION 1", "norad_id": "59625", "line1": "1 59625U 24081A   26190.72367806  .00002195  00000-0  11505-3 0  9991", "line2": "2 59625  97.5012 268.3414 0007747 292.5857  67.4556 15.16821177120953", "country": "USA", "operator": "Maxar", "sensor": "Panchromatic", "resolution_m": 0.3, "notes": "Added 2026-07 from brochure reconciliation; launch 2024-05-02", "fetched_at": 1783676011.8239799, "stale": false, "source": "spacetrack"}, "59626": {"name": "LEGION 2", "norad_id": "59626", "line1": "1 59626U 24081B   26190.75398499  .00002582  00000-0  13474-3 0  9994", "line2": "2 59626  97.5011 268.4683 0009935 254.8850 105.1284 15.16800248120962", "country": "USA", "operator": "Maxar", "sensor": "Panchromatic", "resolution_m": 0.3, "notes": "Added 2026-07 from brochure reconciliation; launch 2024-05-02", "fetched_at": 1783676011.8239799, "stale": false, "source": "spacetrack"}, "60452": {"name": "LEGION 3", "norad_id": "60452", "line1": "1 60452U 24146A   26190.66828874  .00001987  00000-0  11640-3 0  9991", "line2": "2 60452  45.0016 270.0128 0008682 305.2721  54.7345 15.15633421105431", "country": "USA", "operator": "Maxar", "sensor": "Panchromatic", "resolution_m": 0.3, "notes": "Added 2026-07 from brochure reconciliation; launch 2024-08-15", "fetched_at": 1783676011.8239799, "stale": false, "source": "spacetrack"}}